[{"City":"臺北市","Districts":[{"District":"中正區","ZipCode":"100"},{"District":"大同區","ZipCode":"103"},{"District":"中山區","ZipCode":"104"},{"District":"松山區","ZipCode":"105"},{"District":"大安區","ZipCode":"106"},{"District":"萬華區","ZipCode":"108"},{"District":"信義區","ZipCode":"110"},{"District":"士林區","ZipCode":"111"},{"District":"北投區","ZipCode":"112"},{"District":"內湖區","ZipCode":"114"},{"District":"南港區","ZipCode":"115"},{"District":"文山區","ZipCode":"116"}]},{"City":"基隆市","Districts":[{"District":"仁愛區","ZipCode":"200"},{"District":"信義區","ZipCode":"201"},{"District":"中正區","ZipCode":"202"},{"District":"中山區","ZipCode":"203"},{"District":"安樂區","ZipCode":"204"},{"District":"暖暖區","ZipCode":"205"},{"District":"七堵區","ZipCode":"206"}]},{"City":"新北市","Districts":[{"District":"萬里區","ZipCode":"207"},{"District":"金山區","ZipCode":"208"},{"District":"板橋區","ZipCode":"220"},{"District":"汐止區","ZipCode":"221"},{"District":"深坑區","ZipCode":"222"},{"District":"石碇區","ZipCode":"223"},{"District":"瑞芳區","ZipCode":"224"},{"District":"平溪區","ZipCode":"226"},{"District":"雙溪區","ZipCode":"227"},{"District":"貢寮區","ZipCode":"228"},{"District":"新店區","ZipCode":"231"},{"District":"坪林區","ZipCode":"232"},{"District":"烏來區","ZipCode":"233"},{"District":"永和區","ZipCode":"234"},{"District":"中和區","ZipCode":"235"},{"District":"土城區","ZipCode":"236"},{"District":"三峽區","ZipCode":"237"},{"District":"樹林區","ZipCode":"238"},{"District":"鶯歌區","ZipCode":"239"},{"District":"三重區","ZipCode":"241"},{"District":"新莊區","ZipCode":"242"},{"District":"泰山區","ZipCode":"243"},{"District":"林口區","ZipCode":"244"},{"District":"蘆洲區","ZipCode":"247"},{"District":"五股區","ZipCode":"248"},{"District":"八里區","ZipCode":"249"},{"District":"淡水區","ZipCode":"251"},{"District":"三芝區","ZipCode":"252"},{"District":"石門區","ZipCode":"253"}]},{"City":"連江縣","Districts":[{"District":"南竿鄉","ZipCode":"209"},{"District":"北竿鄉","ZipCode":"210"},{"District":"莒光鄉","ZipCode":"211"},{"District":"東引鄉","ZipCode":"212"}]},{"City":"宜蘭縣","Districts":[{"District":"宜蘭市","ZipCode":"260"},{"District":"壯圍鄉","ZipCode":"263"},{"District":"頭城鎮","ZipCode":"261"},{"District":"礁溪鄉","ZipCode":"262"},{"District":"員山鄉","ZipCode":"264"},{"District":"羅東鎮","ZipCode":"265"},{"District":"三星鄉","ZipCode":"266"},{"District":"大同鄉","ZipCode":"267"},{"District":"五結鄉","ZipCode":"268"},{"District":"冬山鄉","ZipCode":"269"},{"District":"蘇澳鎮","ZipCode":"270"},{"District":"南澳鄉","ZipCode":"272"},{"District":"釣魚臺","ZipCode":"290"}]},{"City":"釣魚臺","Districts":[{"District":"釣魚臺","ZipCode":"290"}]},{"City":"新竹市","Districts":[{"District":"東區","ZipCode":"300"},{"District":"北區","ZipCode":"300"},{"District":"香山區","ZipCode":"300"}]},{"City":"新竹縣","Districts":[{"District":"寶山鄉","ZipCode":"308"},{"District":"竹北市","ZipCode":"302"},{"District":"湖口鄉","ZipCode":"303"},{"District":"新豐鄉","ZipCode":"304"},{"District":"新埔鎮","ZipCode":"305"},{"District":"關西鎮","ZipCode":"306"},{"District":"芎林鄉","ZipCode":"307"},{"District":"竹東鎮","ZipCode":"310"},{"District":"五峰鄉","ZipCode":"311"},{"District":"橫山鄉","ZipCode":"312"},{"District":"尖石鄉","ZipCode":"313"},{"District":"北埔鄉","ZipCode":"314"},{"District":"峨眉鄉","ZipCode":"315"}]},{"City":"桃園市","Districts":[{"District":"中壢區","ZipCode":"320"},{"District":"平鎮區","ZipCode":"324"},{"District":"龍潭區","ZipCode":"325"},{"District":"楊梅區","ZipCode":"326"},{"District":"新屋區","ZipCode":"327"},{"District":"觀音區","ZipCode":"328"},{"District":"桃園區","ZipCode":"330"},{"District":"龜山區","ZipCode":"333"},{"District":"八德區","ZipCode":"334"},{"District":"大溪區","ZipCode":"335"},{"District":"復興區","ZipCode":"336"},{"District":"大園區","ZipCode":"337"},{"District":"蘆竹區","ZipCode":"338"}]},{"City":"苗栗縣","Districts":[{"District":"竹南鎮","ZipCode":"350"},{"District":"頭份市","ZipCode":"351"},{"District":"三灣鄉","ZipCode":"352"},{"District":"南庄鄉","ZipCode":"353"},{"District":"獅潭鄉","ZipCode":"354"},{"District":"後龍鎮","ZipCode":"356"},{"District":"通霄鎮","ZipCode":"357"},{"District":"苑裡鎮","ZipCode":"358"},{"District":"苗栗市","ZipCode":"360"},{"District":"造橋鄉","ZipCode":"361"},{"District":"頭屋鄉","ZipCode":"362"},{"District":"公館鄉","ZipCode":"363"},{"District":"大湖鄉","ZipCode":"364"},{"District":"泰安鄉","ZipCode":"365"},{"District":"銅鑼鄉","ZipCode":"366"},{"District":"三義鄉","ZipCode":"367"},{"District":"西湖鄉","ZipCode":"368"},{"District":"卓蘭鎮","ZipCode":"369"}]},{"City":"臺中市","Districts":[{"District":"中區","ZipCode":"400"},{"District":"東區","ZipCode":"401"},{"District":"南區","ZipCode":"402"},{"District":"西區","ZipCode":"403"},{"District":"北區","ZipCode":"404"},{"District":"北屯區","ZipCode":"406"},{"District":"西屯區","ZipCode":"407"},{"District":"南屯區","ZipCode":"408"},{"District":"太平區","ZipCode":"411"},{"District":"大里區","ZipCode":"412"},{"District":"霧峰區","ZipCode":"413"},{"District":"烏日區","ZipCode":"414"},{"District":"豐原區","ZipCode":"420"},{"District":"后里區","ZipCode":"421"},{"District":"石岡區","ZipCode":"422"},{"District":"東勢區","ZipCode":"423"},{"District":"和平區","ZipCode":"424"},{"District":"新社區","ZipCode":"426"},{"District":"潭子區","ZipCode":"427"},{"District":"大雅區","ZipCode":"428"},{"District":"神岡區","ZipCode":"429"}]
